{
    "links": {
        "self": "http://www.neowsapp.com/rest/v1/neo/3729542?api_key=iIulBulltgU6a56xZRHN4H3l9WmuAYTsLGpBGhQ2"
    },
    "id": "3729542",
    "neo_reference_id": "3729542",
    "name": "(2015 TG144)",
    "designation": "2015 TG144",
    "nasa_jpl_url": "http://ssd.jpl.nasa.gov/sbdb.cgi?sstr=3729542",
    "absolute_magnitude_h": 25.6,
    "estimated_diameter": {
        "kilometers": {
            "estimated_diameter_min": 0.0201629919,
            "estimated_diameter_max": 0.0450858206
        },
        "meters": {
            "estimated_diameter_min": 20.1629919443,
            "estimated_diameter_max": 45.0858206172
        },
        "miles": {
            "estimated_diameter_min": 0.0125286985,
            "estimated_diameter_max": 0.0280150214
        },
        "feet": {
            "estimated_diameter_min": 66.1515504905,
            "estimated_diameter_max": 147.9193637137
        }
    },
    "is_potentially_hazardous_asteroid": false,
    "close_approach_data": [
        {
            "close_approach_date": "1962-03-28",
            "close_approach_date_full": "1962-Mar-28 03:46",
            "epoch_date_close_approach": -245016840000,
            "relative_velocity": {
                "kilometers_per_second": "20.6959969433",
                "kilometers_per_hour": "74505.5889958037",
                "miles_per_hour": "46294.8755624203"
            },
            "miss_distance": {
                "astronomical": "0.4690652609",
                "lunar": "182.4663864901",
                "kilometers": "70171163.921634283",
                "miles": "43602339.3935597854"
            },
            "orbiting_body": "Earth"
        },
        {
            "close_approach_date": "2015-10-16",
            "close_approach_date_full": "2015-Oct-16 08:59",
            "epoch_date_close_approach": 1444985940000,
            "relative_velocity": {
                "kilometers_per_second": "8.0621886463",
                "kilometers_per_hour": "29023.8791268463",
                "miles_per_hour": "18034.3097830118"
            },
            "miss_distance": {
                "astronomical": "0.0341589708",
                "lunar": "13.2878396412",
                "kilometers": "5110109.273072196",
                "miles": "3175274.6628444648"
            },
            "orbiting_body": "Earth"
        },
        {
            "close_approach_date": "2016-04-30",
            "close_approach_date_full": "2016-Apr-30 22:05",
            "epoch_date_close_approach": 1462053900000,
            "relative_velocity": {
                "kilometers_per_second": "6.7208014274",
                "kilometers_per_hour": "24194.8851386421",
                "miles_per_hour": "15033.7607129524"
            },
            "miss_distance": {
                "astronomical": "0.3617138682",
                "lunar": "140.7066947298",
                "kilometers": "54111624.232180734",
                "miles": "33623404.1599087692"
            },
            "orbiting_body": "Earth"
        },
        {
            "close_approach_date": "2021-03-21",
            "close_approach_date_full": "2021-Mar-21 00:26",
            "epoch_date_close_approach": 1616286360000,
            "relative_velocity": {
                "kilometers_per_second": "15.6976728398",
                "kilometers_per_hour": "56511.6222233232",
                "miles_per_hour": "35114.1243753755"
            },
            "miss_distance": {
                "astronomical": "0.2995386646",
                "lunar": "116.5205405294",
                "kilometers": "44810346.206804402",
                "miles": "27843857.9960566676"
            },
            "orbiting_body": "Earth"
        },
        {
            "close_approach_date": "2024-09-30",
            "close_approach_date_full": "2024-Sep-30 20:47",
            "epoch_date_close_approach": 1727729220000,
            "relative_velocity": {
                "kilometers_per_second": "15.5975714635",
                "kilometers_per_hour": "56151.2572685662",
                "miles_per_hour": "34890.2076066821"
            },
            "miss_distance": {
                "astronomical": "0.2925460801",
                "lunar": "113.8004251589",
                "kilometers": "43764270.459809387",
                "miles": "27193856.6678360606"
            },
            "orbiting_body": "Earth"
        }
    ],
    "orbital_data": {
        "orbit_id": "4",
        "orbit_determination_date": "2017-04-06 08:31:28",
        "first_observation_date": "2015-10-09",
        "last_observation_date": "2015-10-16",
        "data_arc_in_days": 7,
        "observations_used": 14,
        "orbit_uncertainty": "7",
        "minimum_orbit_intersection": ".020683",
        "jupiter_tisserand_invariant": "5.328",
        "epoch_osculation": "2459000.5",
        "eccentricity": ".2616938385632105",
        "semi_major_axis": "1.178700277976913",
        "inclination": "6.094818619086066",
        "ascending_node_longitude": "194.6828039577666",
        "orbital_period": "467.4159260203213",
        "perihelion_distance": ".8702416777176111",
        "perihelion_argument": "259.3308431196909",
        "aphelion_distance": "1.487158878236214",
        "perihelion_time": "2458770.894242448613",
        "mean_anomaly": "176.8405142337956",
        "mean_motion": ".7701919852520146",
        "equinox": "J2000",
        "orbit_class": {
            "orbit_class_type": "APO",
            "orbit_class_description": "Near-Earth asteroid orbits which cross the Earth’s orbit similar to that of 1862 Apollo",
            "orbit_class_range": "a (semi-major axis) > 1.0 AU; q (perihelion) < 1.017 AU"
        }
    },
    "is_sentry_object": false
}